"SKU","AWB","name","address","latitude","longitude","riderId","vehicleId"
"SKU_116","84366653069","Phyllis Ehlers","2, Church Street, Bangalore",12.97466,77.60765,"4ffca868-b24c-49bf-b81e-198ecdc7f94a","DL 8DY 1276"
"SKU_27","15239382796","Virginia Cole","14, 2nd Floor, Church Street, Bangalore",12.97431,77.60772,"4ffca868-b24c-49bf-b81e-198ecdc7f94a","DL 8DY 1276"
"SKU_127","70918939146","Mary Reed","24, Church Street, Bangalore",12.97468,77.60579,"4ffca868-b24c-49bf-b81e-198ecdc7f94a","DL 8DY 1276"
"SKU_69","81065467193","Jeffrey Mekee","46/1, Cobalt Building, Church Street, Bangalore",12.97488,77.60564,"4ffca868-b24c-49bf-b81e-198ecdc7f94a","DL 8DY 1276"
"SKU_90","75568022308","Pam Trela","50/1, Haridevpur, Shantala Nagar, Ashok Nagar, Church Street, Bangalore",12.97499,77.60478,"4ffca868-b24c-49bf-b81e-198ecdc7f94a","DL 8DY 1276"
"SKU_1","98170732794","Twyla Nichols","22, Amoeba Complex, Church Street, Bangalore",12.97468,77.6049,"4ffca868-b24c-49bf-b81e-198ecdc7f94a","DL 8DY 1276"
"SKU_124","69379883919","Joe Lawson","22, Amoeba Complex, Church Street, Bangalore",12.97468,77.6049,"4ffca868-b24c-49bf-b81e-198ecdc7f94a","DL 8DY 1276"
"SKU_114","59997033261","Lelia Wooten","1A, Church Street, Bangalore",12.97404,77.60714,"4ffca868-b24c-49bf-b81e-198ecdc7f94a","DL 8DY 1276"
"SKU_136","30262250302","Jenna Reed","119/19, Ground Floor, 10th Cross, Venkateshwara Layout, SG Palya, HSR, Bangalore",12.94815,77.59718,"4ffca868-b24c-49bf-b81e-198ecdc7f94a","DL 8DY 1276"
"SKU_5","62165843566","Aaron Davis","77 Town, Building No 3, Divya Shree Building, Yamalur Post, Marathahalli, Bangalore",12.92575,77.61438,"4ffca868-b24c-49bf-b81e-198ecdc7f94a","DL 8DY 1276"
"SKU_50","85539430303","Sherry Ludlam","809/A, 27th Main, 100 Feet Road, 1st Sector, HSR, Bangalore",12.91047,77.61395,"4ffca868-b24c-49bf-b81e-198ecdc7f94a","DL 8DY 1276"
"SKU_58","71217404672","Lidia Wickham","81, 7th Main, 5th Cross, Bank of Baroda Colony, 7th Phase, JP Nagar, Bangalore",12.90595,77.6059,"4ffca868-b24c-49bf-b81e-198ecdc7f94a","DL 8DY 1276"
"SKU_45","98072567575","Brian Glass","5th Cross Road, Dollar Layout, 3rd Phase, JP Nagar, Bangalore",12.90669,77.60232,"4ffca868-b24c-49bf-b81e-198ecdc7f94a","DL 8DY 1276"
"SKU_41","35496906287","Jessica Blakely","Near Bank Of India ATM, Ramka Colony, Bilekahalli, Marathahalli, Bangalore",12.90198,77.6042,"4ffca868-b24c-49bf-b81e-198ecdc7f94a","DL 8DY 1276"
"SKU_24","47772983315","Larry Solomon","Near Bank Of India ATM, Ramka Colony, Bilekahalli, Marathahalli, Bangalore",12.90198,77.6042,"4ffca868-b24c-49bf-b81e-198ecdc7f94a","DL 8DY 1276"
"SKU_96","66193906105","Gerard Cardin","Site 15, 15th Cross, 100 Feet Road, 4th Phase, JP Nagar, Bangalore",12.90613,77.59683,"4ffca868-b24c-49bf-b81e-198ecdc7f94a","DL 8DY 1276"
"SKU_18","92874070081","Thomas Lyons","311, 15th Cross, 5th Phase, JP Nagar, Bangalore",12.90614,77.593,"4ffca868-b24c-49bf-b81e-198ecdc7f94a","DL 8DY 1276"
"SKU_44","32162999926","Miguel Evanoff","The HHI Select Bengaluru Hotel, 686, 15th Cross, Ring Road, 2nd Phase, JP Nagar, Bangalore",12.90658,77.59293,"4ffca868-b24c-49bf-b81e-198ecdc7f94a","DL 8DY 1276"
"SKU_144","33178947349","George Rivas","67, 15th Cross, 6th B Main, JP Nagar, Bangalore",12.90638,77.59671,"4ffca868-b24c-49bf-b81e-198ecdc7f94a","DL 8DY 1276"
"SKU_103","67841310375","Brenda Berry","Quality Inn - Shravanthi, 60, 13th Cross, 2nd Main, 3rd Phase, JP Nagar, Bangalore",12.90736,77.59852,"4ffca868-b24c-49bf-b81e-198ecdc7f94a","DL 8DY 1276"
"SKU_92","81028594970","Daniel Moore","57, 15th Cross Road, Outer Ring Road, Phase 6, JP Nagar, Bangalore",12.9071,77.59965,"4ffca868-b24c-49bf-b81e-198ecdc7f94a","DL 8DY 1276"
"SKU_22","61686659900","James Riley","46/A, 1st Main, 3rd Phase, JP Nagar, Bangalore",12.91121,77.59917,"4ffca868-b24c-49bf-b81e-198ecdc7f94a","DL 8DY 1276"
"SKU_56","18834198685","Rebecca Vanos","204, 4th Cross, KSRTC Layout, 2nd Phase, JP Nagar, Bangalore",12.91272,77.59585,"4ffca868-b24c-49bf-b81e-198ecdc7f94a","DL 8DY 1276"
"SKU_15","15743308603","Louise Lynch","1260, SY 35/4, SJR Towers, 24th Main Puttanhalli, 7th Phase, JP Nagar, Bangalore",12.91566,77.59942,"4ffca868-b24c-49bf-b81e-198ecdc7f94a","DL 8DY 1276"
"SKU_123","62376246282","Edward Leon","1260, SY 35/4, SJR Tower's, 7th Phase, 24th Main Puttanhalli, JP Nagar, Bangalore",12.91566,77.59942,"4ffca868-b24c-49bf-b81e-198ecdc7f94a","DL 8DY 1276"
"SKU_143","75423501902","Doris Floyd","1260, SY 35/4, SJR Towers, 24th Main Puttanhalli, 7th Phase, JP Nagar, Bangalore",12.91566,77.59942,"4ffca868-b24c-49bf-b81e-198ecdc7f94a","DL 8DY 1276"
"SKU_144","85830764356","John Dutton","77/1, 24th Main, 2nd Phase, JP Nagar, Bangalore",12.91587,77.58601,"4ffca868-b24c-49bf-b81e-198ecdc7f94a","DL 8DY 1276"
"SKU_113","60104333056","Linda Kurland","954, 2nd Floor, 24th Main, 2nd Phase, Opposite LIC Building, JP Nagar, Bangalore",12.91158,77.58572,"4ffca868-b24c-49bf-b81e-198ecdc7f94a","DL 8DY 1276"
"SKU_9","49180403091","Ronnie Cameron","Amoolya, 1st Floor, 24th Main, 6th Phase, JP Nagar, Bangalore",12.90888,77.58575,"4ffca868-b24c-49bf-b81e-198ecdc7f94a","DL 8DY 1276"
"SKU_74","82980897770","Daren Devit","Amoolya, 1st Floor, 24th Main, 6th Phase, JP Nagar, Bangalore",12.90888,77.58575,"4ffca868-b24c-49bf-b81e-198ecdc7f94a","DL 8DY 1276"
"SKU_109","81926175607","Virginia Sauer","Cross Roads Inn, 827, Near RV Dental College Compound, 24th Main, 12th Cross, JP Nagar, Bangalore",12.90856,77.58595,"4ffca868-b24c-49bf-b81e-198ecdc7f94a","DL 8DY 1276"
"SKU_28","13385067871","Leticia Coleman","5th A Cross, Lakshmi Complex, Manjunatha Colony, Near RV Dental College, 2nd phase, JP Nagar, Bangalore",12.91139,77.58499,"4ffca868-b24c-49bf-b81e-198ecdc7f94a","DL 8DY 1276"
"SKU_147","60730226124","Richard Book","104/1, 21st Main Road, 6th Cross Road, R K Colony, JP Nagar 2nd Phase, Bangalore",12.91232,77.58784,"4ffca868-b24c-49bf-b81e-198ecdc7f94a","DL 8DY 1276"
"SKU_38","76031744666","Anna Kelly","281, 2nd Floor, 15th Cross, 5th Phase, JP Nagar, Bangalore",12.9064,77.58861,"4ffca868-b24c-49bf-b81e-198ecdc7f94a","DL 8DY 1276"
"SKU_138","72031214940","Sarah Kardashian","8, 15th Main, 5th Phase, JP Nagar, Bangalore",12.9033,77.59174,"4ffca868-b24c-49bf-b81e-198ecdc7f94a","DL 8DY 1276"
"SKU_16","36774055970","Frank Garcia","Eden Park7, 8 Doresani Palya, Near Kalyani Magnum, Opposite Oracle, 5th Phase, JP Nagar, Bangalore",12.90177,77.59498,"4ffca868-b24c-49bf-b81e-198ecdc7f94a","DL 8DY 1276"
"SKU_103","60270106051","Martha Braun","296, Ground Floor, 5th Phase, 100 ft Outer Ring Road, JP Nagar, Bangalore",12.90629,77.58745,"4ffca868-b24c-49bf-b81e-198ecdc7f94a","DL 8DY 1276"
"SKU_7","52273090335","Antonio Oliver","305, Anand NR Onyx, 15th Cross, 100 Feet Ring Road, 5th Phase Extension, JP Nagar, Bangalore",12.90629,77.58745,"4ffca868-b24c-49bf-b81e-198ecdc7f94a","DL 8DY 1276"
"SKU_31","73350066683","Jon Hall","1, 24th Main Rd, 1st Phase, Girinagar, KR Layout, Muneshwara T-Block, JP Nagar, Bangalore",12.90453,77.58556,"4ffca868-b24c-49bf-b81e-198ecdc7f94a","DL 8DY 1276"
"SKU_23","49726345575","Cora Massart","1, 24th Main Rd, 1st Phase, Girinagar, KR Layout, Muneshwara T-Block, JP Nagar, Bangalore",12.90453,77.58556,"4ffca868-b24c-49bf-b81e-198ecdc7f94a","DL 8DY 1276"
"SKU_91","95782788535","Daniel Tremper","Shop 1, 129, 24th Main, 5th Phase, JP Nagar, Bangalore",12.90388,77.58591,"4ffca868-b24c-49bf-b81e-198ecdc7f94a","DL 8DY 1276"
"SKU_141","27632908686","Jesse Chan","21, 24th Main Road, 6th Phase, JP Nagar, Bangalore",12.90295,77.58562,"4ffca868-b24c-49bf-b81e-198ecdc7f94a","DL 8DY 1276"
"SKU_117","25281194232","Christine Pfeiff","#35/4, 24th main JP Nagar 7th phase, Puttenahalli, JP Nagar, Bangalore",12.90101,77.58604,"4ffca868-b24c-49bf-b81e-198ecdc7f94a","DL 8DY 1276"
"SKU_21","14876577908","John Fridley","1260 SY 35/4 SJR Tower's, 24th Main Puttanhalli, JP Nagar 7th Phase, Bangalore",12.90039,77.58584,"4ffca868-b24c-49bf-b81e-198ecdc7f94a","DL 8DY 1276"
"SKU_137","38777880457","Karen Yuen","1260 SY 35/4 SJR Tower's, 24th Main Puttanhalli, 7th Phase, JP Nagar Bangalore",12.90039,77.58584,"4ffca868-b24c-49bf-b81e-198ecdc7f94a","DL 8DY 1276"
"SKU_141","34763837898","Michael Parenteau","1260 SY 35/4 SJR Tower's, JP Nagar 7th Phase, 24th Main Puttanhalli, JP Nagar, Bangalore",12.90039,77.58584,"4ffca868-b24c-49bf-b81e-198ecdc7f94a","DL 8DY 1276"
"SKU_83","96594637899","Sam Vest","1260 SY 35/4 SJR Tower's, JP Nagar 7th Phase, 24th Main Puttanhalli, JP Nagar, Bangalore",12.90039,77.58584,"4ffca868-b24c-49bf-b81e-198ecdc7f94a","DL 8DY 1276"
"SKU_98","73908465584","Mildred Richards","44-45, Terrace Floor, 24th Main Road, 7th phase, JP Nagar, Bangalore",12.89828,77.58585,"4ffca868-b24c-49bf-b81e-198ecdc7f94a","DL 8DY 1276"
"SKU_13","72346908029","James Rego","97, Wilson Garden Housing Society, 7th Phase, JP Nagar, Bangalore",12.89786,77.58451,"4ffca868-b24c-49bf-b81e-198ecdc7f94a","DL 8DY 1276"
"SKU_59","87207515803","Angela Cowman","18th Cross road, 5th Phase, JP Nagar, Bangalore",12.90321,77.5878,"4ffca868-b24c-49bf-b81e-198ecdc7f94a","DL 8DY 1276"
"SKU_29","86868052143","Mabel Covell","10/3, Shamanna Garden, 22nd Main Rd, Phase 5, JP Nagar, Bangalore",12.90374,77.58704,"4ffca868-b24c-49bf-b81e-198ecdc7f94a","DL 8DY 1276"
"SKU_100","77357637627","Willie Matson","18, K.R Layout, Dollar Colony, 4th Phase, JP Nagar",12.90526,77.58415,"4ffca868-b24c-49bf-b81e-198ecdc7f94a","DL 8DY 1276"
"SKU_7","48712626536","Gary Nelson","Shop 37, 3rd Cross, Outer Ring Road, Kadubisnahalli, Marathahalli, Bangalore",12.90634,77.57115,"4ffca868-b24c-49bf-b81e-198ecdc7f94a","DL 8DY 1276"
"SKU_144","62201852038","Vickie Ramos","6, Shakambari Nagar, 1st stage, JP Nagar, Bangalore",12.91208,77.57452,"4ffca868-b24c-49bf-b81e-198ecdc7f94a","DL 8DY 1276"
"SKU_59","65307617155","Teresa Ford","47/1, 9th Main,1st Cross, Miniforest, Phase 3, JP Nagar, Bangalore",12.91656,77.58356,"4ffca868-b24c-49bf-b81e-198ecdc7f94a","DL 8DY 1276"
"SKU_51","69289578038","Elijah Reno","Brigade Millenium Inside Indian Music Experience Museum, JP Nagar, Bangalore, Bengaluru",12.8918,77.58369,"4ffca868-b24c-49bf-b81e-198ecdc7f94a","DL 8DY 1276"
"SKU_77","60615787248","William Rivera","99/2A, Kothnoor Main Road, Opposite RBI Layout Bus Stop, 7th Phase, JP Nagar, Bangalore",12.89024,77.58213,"4ffca868-b24c-49bf-b81e-198ecdc7f94a","DL 8DY 1276"
"SKU_29","13346207178","Ryan Orlando","114, Kothanur Main Road, Santrupthi Nagar, 7th Phase, JP Nagar, Bangalore",12.89198,77.58178,"4ffca868-b24c-49bf-b81e-198ecdc7f94a","DL 8DY 1276"
"SKU_125","50581824353","Tim Sokol","724, 3rd Floor, RBI Layout, Rini Pearl, Opposite E.K. Retail, 7th Phase, JP Nagar, Bangalore",12.89179,77.57775,"4ffca868-b24c-49bf-b81e-198ecdc7f94a","DL 8DY 1276"
"SKU_40","24549099395","Freda Beauchamp","JP Nagar, Phase 7, Bangalore",12.889,77.57339,"4ffca868-b24c-49bf-b81e-198ecdc7f94a","DL 8DY 1276"
"SKU_130","28090773455","Antoine Robertson","Big Bazzar Building, JP Nagar, Bangalore",12.88722,77.58183,"4ffca868-b24c-49bf-b81e-198ecdc7f94a","DL 8DY 1276"
"SKU_95","50570222462","Jason Taylor","Someshwara Bhavan, RBI Layout, 7th Phase, Kothnur Main Road, JP Nagar, Bangalore",12.88381,77.58295,"4ffca868-b24c-49bf-b81e-198ecdc7f94a","DL 8DY 1276"
"SKU_134","66314622688","Johnny Runyan","99/4, Nataraja Layout, 7th Phase, JP Nagar, Bangalore",12.8898,77.58559,"4ffca868-b24c-49bf-b81e-198ecdc7f94a","DL 8DY 1276"
"SKU_65","65216540873","Nathan Merkel","15, 7th Cross, Near Mother Teresa School, ITI Layout, Hosapalya Main Road, HSR, Bangalore",12.89215,77.62824,"4ffca868-b24c-49bf-b81e-198ecdc7f94a","DL 8DY 1276"
"SKU_148","38653109135","Samuel Sampley","Number 4 St Mary's Building, 39/1, 2nd Stage, Indiranagar, Bangalore",13.01125,77.50636,"4ffca868-b24c-49bf-b81e-198ecdc7f94a","DL 8DY 1276"
"SKU_113","99015056791","Normand Ashford","First Floor, 14, Church Street, Bangalore",12.97523,77.60346,"5b0dd324-fe13-4d95-9429-6ee1280b9fb8","DL 9CY 3366"
"SKU_10","76893410434","George Garrett","33, High Gates Hotel, Church Street, Bangalore",12.97508,77.60316,"5b0dd324-fe13-4d95-9429-6ee1280b9fb8","DL 9CY 3366"
"SKU_98","73796529420","Jesse Suarez","48, Triumph Towers, Church Street, Bangalore",12.97551,77.60315,"5b0dd324-fe13-4d95-9429-6ee1280b9fb8","DL 9CY 3366"
"SKU_23","40661403008","Shawn Reeves","9/3, Prestige Pearl House, Museum Road, Church Street, Bangalore",12.97351,77.60335,"5b0dd324-fe13-4d95-9429-6ee1280b9fb8","DL 9CY 3366"
"SKU_107","52059909281","Joyce Brothers","42, Church Street, Bangalore",12.9758,77.60191,"5b0dd324-fe13-4d95-9429-6ee1280b9fb8","DL 9CY 3366"
"SKU_45","61422999142","Aldo Edsall","G-005, City Centre, 28/4, Church Street, Bangalore",12.97565,77.60226,"5b0dd324-fe13-4d95-9429-6ee1280b9fb8","DL 9CY 3366"
"SKU_106","83381832974","Christopher Watters","G-005, City Centre, 28/4, Church Street, Bangalore",12.97565,77.60226,"5b0dd324-fe13-4d95-9429-6ee1280b9fb8","DL 9CY 3366"
"SKU_88","41965274833","Ralph Evans","46, Church Street, Bangalore",12.97571,77.60239,"5b0dd324-fe13-4d95-9429-6ee1280b9fb8","DL 9CY 3366"
"SKU_91","24472334890","Marjorie Williamson","46, Church Street, Bangalore",12.97571,77.60239,"5b0dd324-fe13-4d95-9429-6ee1280b9fb8","DL 9CY 3366"
"SKU_121","70899793952","Gary Simmons","197/A, Double Road, 2nd Stage, Opposite HDFC Bank, Indiranagar, Bangalore",12.96131,77.63662,"a18b94e1-f33c-42a6-9f3f-d022b0f1598b","DL 9CX 7218"
"SKU_75","13337031353","Lawerence Lindsay","212/A, 1st Main Road, Stage 2, Indiranagar, Bangalore",12.96538,77.63803,"a18b94e1-f33c-42a6-9f3f-d022b0f1598b","DL 9CX 7218"
"SKU_131","47003637195","Marshall Parham","212/A, 1st Main Road, Stage 2, Indiranagar, Bangalore",12.96538,77.63803,"a18b94e1-f33c-42a6-9f3f-d022b0f1598b","DL 9CX 7218"
"SKU_86","75506986031","Anna Bundy","12th Main Road Junction, Double Road, Indiranagar, Bangalore",12.96985,77.63597,"a18b94e1-f33c-42a6-9f3f-d022b0f1598b","DL 9CX 7218"
"SKU_123","38434272738","Trudy Moore","1088, 12th Main, HAL 2nd Stage, Off 100 Feet Road, Indiranagar, Bangalore",12.96991,77.63794,"a18b94e1-f33c-42a6-9f3f-d022b0f1598b","DL 9CX 7218"
"SKU_114","20550226542","Doria Ferguson","1083, 12th main, 5th Cross, Indiranagar, Bangalore",12.96995,77.63872,"a18b94e1-f33c-42a6-9f3f-d022b0f1598b","DL 9CX 7218"
"SKU_113","94667742985","Daniel Marrin","970, 12th Main, 5th Cross, Indiranagar, Bangalore",12.96992,77.63887,"a18b94e1-f33c-42a6-9f3f-d022b0f1598b","DL 9CX 7218"
"SKU_61","65665446450","Mary Walton","949, 12th Main Rd, Appareddipalya, Indiranagar, Bengaluru, Karnataka",12.9702,77.63911,"a18b94e1-f33c-42a6-9f3f-d022b0f1598b","DL 9CX 7218"
"SKU_91","62399381626","Harvey Tyner","949, 12th Main, Ground Floor, Off 100 Feet Road, Indiranagar, Bangalore",12.9702,77.63911,"a18b94e1-f33c-42a6-9f3f-d022b0f1598b","DL 9CX 7218"
"SKU_20","77604849495","Patricia Johnston","949, Ground Floor, HAL 2nd Stage, 12th Main, 100 feet Road, Indiranagar, Bangalore",12.97027,77.64139,"a18b94e1-f33c-42a6-9f3f-d022b0f1598b","DL 9CX 7218"
"SKU_115","81655937477","Jose Williams","1324, Double Road, 2nd Stage, Opposite Cauvery School, Indiranagar, Bangalore",12.97502,77.64493,"a18b94e1-f33c-42a6-9f3f-d022b0f1598b","DL 9CX 7218"
"SKU_9","21225161006","Joanna Evetts","712, 6th Cross, 5th Main, Off 80 Feet Road, Indiranagar, Bangalore",12.97581,77.64674,"a18b94e1-f33c-42a6-9f3f-d022b0f1598b","DL 9CX 7218"
"SKU_146","46767096463","Thomas Viviano","Next to CMH Metro Station, CMH Road, Indiranagar, Bangalore",12.97789,77.64619,"a18b94e1-f33c-42a6-9f3f-d022b0f1598b","DL 9CX 7218"
"SKU_55","55525210263","Mary Perez","4, 39/1, St Mary's Building, 2nd Stage, Indiranagar, Bangalore",12.97837,77.64084,"a18b94e1-f33c-42a6-9f3f-d022b0f1598b","DL 9CX 7218"
"SKU_18","26105795180","Roger Bouldin","Shop 6, First Floor, Binnamangala First Stage, Indiranagar, Bangalore",12.9809,77.63982,"a18b94e1-f33c-42a6-9f3f-d022b0f1598b","DL 9CX 7218"
"SKU_129","92941598133","Joseph Boyd","Ground Floor, Sri Shiva Sai Complex, 13th Cross, 7th Main, 2nd Stage, HAL, Off Double Road, Indiranagar, Bangalore",12.97867,77.6362,"a18b94e1-f33c-42a6-9f3f-d022b0f1598b","DL 9CX 7218"
"SKU_45","38200322788","Michael Frasier","544, First Floor, Near Indiranagar Metro Station, CMH Road, Indiranagar, Bangalore",12.97831,77.63759,"a18b94e1-f33c-42a6-9f3f-d022b0f1598b","DL 9CX 7218"
"SKU_81","29925333677","Terry Mitchell","8/ 9, 17th F Cross, 2nd Stage, Indiranagar, Bengaluru",12.97714,77.63256,"a18b94e1-f33c-42a6-9f3f-d022b0f1598b","DL 9CX 7218"
"SKU_10","66146763539","Shirlee Tennant","3217, 13th Cross, Indiranagar, Bangalore",12.97272,77.63514,"a18b94e1-f33c-42a6-9f3f-d022b0f1598b","DL 9CX 7218"
"SKU_142","55217454663","Joseph Jones","Srinivasan Towers, ESI Hospital Road, Off Double Road, Indiranagar, Bangalore",12.97119,77.63691,"a18b94e1-f33c-42a6-9f3f-d022b0f1598b","DL 9CX 7218"
"SKU_79","66199582549","Rose Lau","77 Town Center, Yemalur Road, Marathahalli Village, Marathahalli, Bangalore",12.94866,77.68997,"a18b94e1-f33c-42a6-9f3f-d022b0f1598b","DL 9CX 7218"
"SKU_69","87093968225","Russell Diamond","23/4, Kariyammana Agrahara Road Kadubisinahalli, Prestige Tech Park Back Gate, Marathahalli, Bangalore",12.94889,77.68601,"a18b94e1-f33c-42a6-9f3f-d022b0f1598b","DL 9CX 7218"
"SKU_139","12358732625","Annie Farrior","Yemalur, Marathahalli, Bangalore",12.94462,77.68368,"a18b94e1-f33c-42a6-9f3f-d022b0f1598b","DL 9CX 7218"
"SKU_66","86439214657","Lola Lomago","10/3, Devarabeesanahali, Outer Ring Road, Opposite Embassy Tech Park, Marathahalli, Bangalore",12.92674,77.68955,"a18b94e1-f33c-42a6-9f3f-d022b0f1598b","DL 9CX 7218"
"SKU_33","22195593543","Robert Michaud","Ibis Bengaluru, Opposite RMZ Ecospace Business Park, Sarjapur Outer Ring Road, Marathahalli, Bangalore",12.92538,77.68761,"a18b94e1-f33c-42a6-9f3f-d022b0f1598b","DL 9CX 7218"
"SKU_104","70987447117","Holly Sallee","Near kaka singh dhaba, RMZ eco world backgate",12.91876,77.6852,"a18b94e1-f33c-42a6-9f3f-d022b0f1598b","DL 9CX 7218"
"SKU_42","48552195740","Barbara Capehart","20/5, Narayanswamy Building, Kadubeesanahalli Bridge, Outer Ring Road, Kadubeesanahalli, Marathahalli, Bangalore",12.93941,77.69516,"a18b94e1-f33c-42a6-9f3f-d022b0f1598b","DL 9CX 7218"
"SKU_87","17162566322","Tracy Vanhoy","41, Kadubeesanahalli, Marathahalli, Bangalore",12.93941,77.69521,"a18b94e1-f33c-42a6-9f3f-d022b0f1598b","DL 9CX 7218"
"SKU_140","19455702296","John Granderson","Kadubeesanahalli, Near Aricent Technologies, Marathahalli, Bangalore",12.93941,77.69521,"a18b94e1-f33c-42a6-9f3f-d022b0f1598b","DL 9CX 7218"
"SKU_149","22660986194","Delores Dupont","20\5, Panathur Junction, Outer Ring Road, Kadubeessanahalli, Marathahalli, Bangalore",12.93999,77.69622,"a18b94e1-f33c-42a6-9f3f-d022b0f1598b","DL 9CX 7218"
"SKU_8","84961010116","John Kessler","20\5, Panathur Junction, Outer Ring Road, Kadubeessanahalli, Marathahalli, Bangalore",12.93999,77.69622,"a18b94e1-f33c-42a6-9f3f-d022b0f1598b","DL 9CX 7218"
"SKU_67","19783328541","Anthony Torres","20/5, 1st Floor, Panathur Junction, Outer Ring Road, Marathahalli, Bangalore",12.93999,77.69622,"a18b94e1-f33c-42a6-9f3f-d022b0f1598b","DL 9CX 7218"
"SKU_44","71791751983","Dorothy Davis","Plot 302, Shop 1, 2nd Cross, Kadubesanahalli, Panathur Main Road, Marathahalli, Bangalore",12.93993,77.69797,"a18b94e1-f33c-42a6-9f3f-d022b0f1598b","DL 9CX 7218"
"SKU_112","47015403024","Anita Valdez","Panathur Main Road, Kadubeesanahalli, Marathahalli, Bangalore",12.93716,77.70234,"a18b94e1-f33c-42a6-9f3f-d022b0f1598b","DL 9CX 7218"
"SKU_127","79263517463","Willie Kirkwood","2nd Floor, All Season Super Market Building, Panathur Road, Kadubeesanahalli, Panathur, Marathahalli, Bangalore",12.9372,77.70247,"a18b94e1-f33c-42a6-9f3f-d022b0f1598b","DL 9CX 7218"
"SKU_3","60841023934","Bobbie Scarborough","Srinivasa Nilayam, Site 3, Vidya Vikas School Road, Panathur New Extension, Kaverappa Layout, Marathahalli, Bangalore",12.93517,77.70082,"a18b94e1-f33c-42a6-9f3f-d022b0f1598b","DL 9CX 7218"
"SKU_68","43727711975","Ricky Aschenbrenner","3, Srinivasa Nilayam, Vidya Vikas School Road, Panathur New Extension, Kaverappa Layout, Marathahalli, Bangalore",12.93485,77.70119,"a18b94e1-f33c-42a6-9f3f-d022b0f1598b","DL 9CX 7218"
"SKU_78","41891691354","Catherine Wilson","18, Prakruthi Enclave, Panathur Road, Kadubeesanahalli, Marathahalli, Bangalore",12.93678,77.71046,"a18b94e1-f33c-42a6-9f3f-d022b0f1598b","DL 9CX 7218"
"SKU_77","45180804640","Carrie Lumpkin","127, Kadubisannhalli, Panathur Main Road, Marathahalli, Bangalore",12.93244,77.70811,"a18b94e1-f33c-42a6-9f3f-d022b0f1598b","DL 9CX 7218"
"SKU_129","61450912280","Tommy Mason","Shop 7, 8 Opposite, Airtel Express, Panathur Main Road, Marathahalli, Bangalore",12.93244,77.70811,"a18b94e1-f33c-42a6-9f3f-d022b0f1598b","DL 9CX 7218"
"SKU_103","25907907008","Frank Lester","Outer Ring Road, Opposite to JP Morgan, Kodbisanhalli, Marathahalli, Bangalore",12.94288,77.69661,"a18b94e1-f33c-42a6-9f3f-d022b0f1598b","DL 9CX 7218"
"SKU_148","73406214406","Jane Jones","88, KBR Complex, More Mega Store, Marathahalli, Bangalore",12.94828,77.69839,"a18b94e1-f33c-42a6-9f3f-d022b0f1598b","DL 9CX 7218"
"SKU_138","32184021928","Harry Heishman","5, KBR Mall Complex, Ground Floor, More Mega Store, Varthur Hobli, Marathahalli, Bangalore",12.94828,77.69839,"a18b94e1-f33c-42a6-9f3f-d022b0f1598b","DL 9CX 7218"
"SKU_62","13002857017","Ivan Kinley","Ground Floor, More Megastore, Service Road, Marathahalli, Bangalore",12.94828,77.69839,"a18b94e1-f33c-42a6-9f3f-d022b0f1598b","DL 9CX 7218"
"SKU_10","18924249557","Charles Albrecht","1st Floor, NTR Royal Plaza, Outer Ring Road, Marathahalli, Bangalore",12.94936,77.69902,"a18b94e1-f33c-42a6-9f3f-d022b0f1598b","DL 9CX 7218"
"SKU_55","51656603551","Patrick Gilliam","90/4, Above Sony Centre, Opposite Park Plaza, Outer Ring Road, Marathahalli, Bangalore",12.95021,77.69893,"a18b94e1-f33c-42a6-9f3f-d022b0f1598b","DL 9CX 7218"
"SKU_139","55026656606","Carolyn Buchan","89/1, Service Road, Marathahalli, Bangalore",12.95039,77.69868,"a18b94e1-f33c-42a6-9f3f-d022b0f1598b","DL 9CX 7218"
"SKU_150","98486281871","Terry Sanabria","89/1, Tulasi Theater Road, Near SBR Palace, Marathahalli, Bangalore",12.94992,77.69767,"a18b94e1-f33c-42a6-9f3f-d022b0f1598b","DL 9CX 7218"
"SKU_113","34889886477","Emma Saulsberry","88, 3rd Floor, KBR Mall, Above More Mega Store, Outer Ring Road, Marathahalli, Bangalore",12.95777,77.70117,"a18b94e1-f33c-42a6-9f3f-d022b0f1598b","DL 9CX 7218"
"SKU_63","56516948976","Robert Clarke","Kadubeesanahalli, Marathahalli Outer Ring Road, Opposite JP Morgan, Varthur Hobli, Marathahalli, Bangalore",12.96419,77.70194,"a18b94e1-f33c-42a6-9f3f-d022b0f1598b","DL 9CX 7218"
"SKU_97","15691083877","Kevin Schneider","88, Outer Ring Road, Next To More Mega Store, Marathahalli, Bangalore",12.94864,77.69968,"a18b94e1-f33c-42a6-9f3f-d022b0f1598b","DL 9CX 7218"
"SKU_90","62758300340","Mary Duffy","88, 1st Floor, VIMS Hospital Building, Outer Ring Road, Marathahalli, Bangalore",12.9483,77.69946,"a18b94e1-f33c-42a6-9f3f-d022b0f1598b","DL 9CX 7218"
"SKU_25","35828962763","Jesse Vaness","Salarpuria Sattva Aura, Kiosk 6, Foodworks Food Court, Block 11, Marathahalli - Sarjapur Outer Ring Road, Kaverappa Layout, Kadubeesanahalli, Marathahalli, Bangalore",12.93565,77.69559,"a18b94e1-f33c-42a6-9f3f-d022b0f1598b","DL 9CX 7218"
"SKU_100","75026092650","Herman Boulds","6,Opposite Prestige Tech Park, Kadubeesanhalli Bus Stop, Marathahalli, Bangalore",12.94324,77.6919,"a18b94e1-f33c-42a6-9f3f-d022b0f1598b","DL 9CX 7218"
"SKU_127","16213830807","Adam Shelquist","Near Madurai Idly, SGR Dental College Road, CKB Layout, Chandra Layout, Marathahalli, Bengalore",12.94994,77.70068,"a18b94e1-f33c-42a6-9f3f-d022b0f1598b","DL 9CX 7218"
"SKU_48","65188908427","Mary Paongo","Near Madurai Idly, SGR Dental College Road, CKB Layout, Chandra Layout, Marathahalli, Bengalore",12.94994,77.70068,"a18b94e1-f33c-42a6-9f3f-d022b0f1598b","DL 9CX 7218"
"SKU_129","24526739732","Marie Harris","First Floor, Raja Ikon, Opposite Hotel Radisson Blu, Near Marathahali Bridge, Marathahalli, Bangalore",12.94934,77.69981,"a18b94e1-f33c-42a6-9f3f-d022b0f1598b","DL 9CX 7218"
"SKU_68","60147650973","Richard Wheeless","20/7, Swamy Legato, Outer Ring Road, Kadubeesanahalli, Marathahalli, Bangalore",12.93893,77.69468,"a18b94e1-f33c-42a6-9f3f-d022b0f1598b","DL 9CX 7218"
"SKU_120","98312518779","Patricia Haislip","94/2, Panathur Railway Station Road, Opp to JP Morgan (Outer Ring Road), Munnireddy Layout, Panathur, Bangalore",12.94091,77.69624,"a18b94e1-f33c-42a6-9f3f-d022b0f1598b","DL 9CX 7218"
"SKU_123","14699928469","Lucille Keirstead","569/4, Sector 1, HSR, Bangalore",12.92573,77.66516,"a18b94e1-f33c-42a6-9f3f-d022b0f1598b","DL 9CX 7218"
"SKU_103","46205581478","Benjamin Smith","2802, 27th Main Road, Sector 1, HSR, Bangalore",12.9233,77.65143,"a18b94e1-f33c-42a6-9f3f-d022b0f1598b","DL 9CX 7218"
"SKU_106","33783112676","Glennie Delacruz","64&65, 27th Main Road, Sector 1, HSR Layout",12.92043,77.6516,"a18b94e1-f33c-42a6-9f3f-d022b0f1598b","DL 9CX 7218"
"SKU_13","49002247401","Mary Davis","2633, 27th Main, 13th Cross, 1st Sector, Liss Arcade, HSR, Bangalore",12.91563,77.65166,"a18b94e1-f33c-42a6-9f3f-d022b0f1598b","DL 9CX 7218"
"SKU_77","50915970151","Milton Wilson","2628, 27th Main Road, 1st Sector, HSR Layout, Bangalore, HSR, Bangalore",12.91517,77.65159,"a18b94e1-f33c-42a6-9f3f-d022b0f1598b","DL 9CX 7218"
"SKU_20","89040589151","Iva Bell","646, 12th Cross, 27th Main, Sector 1, HSR, Bangalore",12.91634,77.65218,"a18b94e1-f33c-42a6-9f3f-d022b0f1598b","DL 9CX 7218"
"SKU_89","11910424508","Nanette Mcbride","680-669, 13th Cross Rd, 1st Sector, HSR Layout, Bengaluru, Karnataka",12.91593,77.64973,"a18b94e1-f33c-42a6-9f3f-d022b0f1598b","DL 9CX 7218"
"SKU_10","20687322207","Carol Upchurch","780, 12th Cross, 19th Main, HSR, Bangalore",12.91638,77.64974,"a18b94e1-f33c-42a6-9f3f-d022b0f1598b","DL 9CX 7218"
"SKU_89","58089927559","Dana Farley","Basement 2064, Siri Iris Building, 24th Main, N.R.T.A Enclave, HSR, Bangalore",12.91546,77.6491,"a18b94e1-f33c-42a6-9f3f-d022b0f1598b","DL 9CX 7218"
"SKU_76","21104565365","Kathleen Cantrell","13th Cross, 24th Main, Opposite Assetz Apartment, 1st Sector, HSR, Bangalore",12.91615,77.64888,"a18b94e1-f33c-42a6-9f3f-d022b0f1598b","DL 9CX 7218"
"SKU_2","22921695090","Charles Trembley","1562, Sector 1, HSR, Bangalore",12.91753,77.65046,"a18b94e1-f33c-42a6-9f3f-d022b0f1598b","DL 9CX 7218"
"SKU_117","94332983235","Gustavo Bailey","543, 7th Cross, 24th Main, Opposite Nous Info Systems, Sector 1, HSR, Bangalore",12.91964,77.64948,"a18b94e1-f33c-42a6-9f3f-d022b0f1598b","DL 9CX 7218"
"SKU_91","30449400919","Bonnie Heath","7th Cross, Sector 1, HSR, Bangalore",12.91945,77.64874,"a18b94e1-f33c-42a6-9f3f-d022b0f1598b","DL 9CX 7218"
"SKU_139","78472305957","Donald Allen","7th Cross Road, Agara Village, 1st Sector, HSR, Bangalore",12.91944,77.64729,"a18b94e1-f33c-42a6-9f3f-d022b0f1598b","DL 9CX 7218"
"SKU_81","87898682349","Brian Isom","1543, 7th Cross, 19th Main, 1st Sector, HSR, Bangalore",12.91964,77.64448,"a18b94e1-f33c-42a6-9f3f-d022b0f1598b","DL 9CX 7218"
"SKU_123","28764133976","Shana Davis","1548, 3rd Floor,19th Main Road, Sector 1, Agara Village, HSR, Bangalore",12.91896,77.64491,"a18b94e1-f33c-42a6-9f3f-d022b0f1598b","DL 9CX 7218"
"SKU_41","29805721561","Carma Haynie","1548, 19th Main, Outer Ring Road, Opposite BMTC Bus Depot, HSR, Bangalore",12.92029,77.64513,"a18b94e1-f33c-42a6-9f3f-d022b0f1598b","DL 9CX 7218"
"SKU_50","39213602287","Raymond Huffman","1558, 19th Main, Ring Road, Near Indian Oil Petrol Bunk, Sector 1, HSR, Bangalore",12.92178,77.6452,"a18b94e1-f33c-42a6-9f3f-d022b0f1598b","DL 9CX 7218"
"SKU_55","18227945733","Amber Johnson","Next to Grigliato, Sector 1 , HSR Layout, HSR, Bangalore",12.92215,77.64537,"a18b94e1-f33c-42a6-9f3f-d022b0f1598b","DL 9CX 7218"
"SKU_47","54163870135","Tara Allen","1554, Ground Floor, 19th Main, Sector - 1, HSR, Bangalore",12.91363,77.64465,"a18b94e1-f33c-42a6-9f3f-d022b0f1598b","DL 9CX 7218"
"SKU_34","19365687734","Angela Hindman","1554, Ground Floor, 19th Main, Sector - 1, HSR, Bangalore",12.91363,77.64465,"a18b94e1-f33c-42a6-9f3f-d022b0f1598b","DL 9CX 7218"
"SKU_9","95752660397","William Wilson","1554, Ground Floor, 19th Main, Sector 1, HSR, Bangalore",12.91363,77.64465,"a18b94e1-f33c-42a6-9f3f-d022b0f1598b","DL 9CX 7218"
"SKU_70","41474085570","Terresa Breau","2331, 17th Cross, 24th Main, HSR, Bangalore",12.91208,77.6495,"a18b94e1-f33c-42a6-9f3f-d022b0f1598b","DL 9CX 7218"
"SKU_59","71466613736","Ralph Martin","1214, 17th Cross Road, Parangi Palaya, Sector 2, HSR Layout, Bangalore",12.91213,77.65021,"a18b94e1-f33c-42a6-9f3f-d022b0f1598b","DL 9CX 7218"
"SKU_76","40837739535","Margie Galvan","27th Main, Near NIFT, Sector-1, HSR, Bangalore",12.91199,77.65183,"a18b94e1-f33c-42a6-9f3f-d022b0f1598b","DL 9CX 7218"
"SKU_110","96874607527","Frances Chai","647, Ground Floor, 27th Main Road, Sector 1, HSR, Bangalore",12.91199,77.65183,"a18b94e1-f33c-42a6-9f3f-d022b0f1598b","DL 9CX 7218"
"SKU_53","53402748741","Juanita Pahulu","191, Ground Floor, 27th Main Road, Near CPWD Quarters, Beside Lawrance & Mayo, Sector 2, HSR, Bangalore",12.91199,77.65183,"a18b94e1-f33c-42a6-9f3f-d022b0f1598b","DL 9CX 7218"
"SKU_146","81727476606","William Sherman","331, Ground Floor, 27th Main, 2nd Stage, HSR, Bangalore",12.91199,77.65183,"a18b94e1-f33c-42a6-9f3f-d022b0f1598b","DL 9CX 7218"
"SKU_82","42498449819","Kenneth Baker","2318, 27th Main Road, 1st Sector, HSR, Bangalore",12.91216,77.65167,"a18b94e1-f33c-42a6-9f3f-d022b0f1598b","DL 9CX 7218"
"SKU_28","91311238475","Marissa Coram","2738, 27th Main, Sector 1, HSR, Bangalore",12.91279,77.65203,"a18b94e1-f33c-42a6-9f3f-d022b0f1598b","DL 9CX 7218"
"SKU_106","50745703670","Christopher Porter","2610, 27th Main, Near NIFT, HSR Layout, HSR, Bangalore",12.91293,77.65165,"a18b94e1-f33c-42a6-9f3f-d022b0f1598b","DL 9CX 7218"
"SKU_83","28074155949","Thelma Howells","2610, 27th Main, Near NIFT, HSR Layout, HSR, Bangalore",12.91293,77.65165,"a18b94e1-f33c-42a6-9f3f-d022b0f1598b","DL 9CX 7218"
"SKU_38","85469796479","Theodore Bunch","Opposite NIFT College, 2733, 16th Cross, 27th Main Road, PWD Quarters, 1st Sector, HSR Layout, HSR, Bangalore",12.9127,77.65248,"a18b94e1-f33c-42a6-9f3f-d022b0f1598b","DL 9CX 7218"
"SKU_110","31316164825","Joe Worley","#2733, 16th Cross, 27th Main, Opppsite NIFT College, Sector 1, HSR, Bangalore",12.9127,77.65248,"a18b94e1-f33c-42a6-9f3f-d022b0f1598b","DL 9CX 7218"
"SKU_142","98967476662","Marshall Quinton","2733, 16th Cross, 27th Main, Opposite NIFT, Sector 1, HSR Layout, Bangalore, HSR, Bangalore",12.9127,77.65248,"a18b94e1-f33c-42a6-9f3f-d022b0f1598b","DL 9CX 7218"
"SKU_119","84618864102","Daniel Miller","2733, 16th Cross, 27th Main Road, Oppsite, NIFT College, 1st Sector, HSR Layout, Bangalore",12.9127,77.65248,"a18b94e1-f33c-42a6-9f3f-d022b0f1598b","DL 9CX 7218"
"SKU_42","89394948450","David Webber","2724, 31st Main, 17th Cross, HSR, Bangalore",12.91269,77.65327,"a18b94e1-f33c-42a6-9f3f-d022b0f1598b","DL 9CX 7218"
"SKU_147","85984892588","Amber Smith","Building 2686, 31 Main, 13 Cross, Sector 1, Behind CPWD Quarters, HSR Layout, HSR, Bangalore",12.90965,77.65331,"a18b94e1-f33c-42a6-9f3f-d022b0f1598b","DL 9CX 7218"
"SKU_69","17354068059","Clarence Fuller","191, First Floor, 27th Main, Sector 2, HSR, Bangalore",12.90798,77.65173,"a18b94e1-f33c-42a6-9f3f-d022b0f1598b","DL 9CX 7218"
"SKU_106","66471762239","Jesus Rodriguez","Shop 339, 27th Main Road, HSR Layout Sector 2, Bangalore",12.90781,77.65186,"a18b94e1-f33c-42a6-9f3f-d022b0f1598b","DL 9CX 7218"
"SKU_48","89111417547","Larry Herndon","1, 328, 27th Main, 21st Cross, Sector 2, HSR, Bangalore",12.90421,77.65073,"a18b94e1-f33c-42a6-9f3f-d022b0f1598b","DL 9CX 7218"
"SKU_73","76687493477","Marvin Buck","2317, 27th Main, Sector 1, Opposite NIFT College, HSR Layout, HSR, Bangalore",12.91245,77.65168,"a18b94e1-f33c-42a6-9f3f-d022b0f1598b","DL 9CX 7218"
"SKU_85","94402524628","Howard Roman","2606, Ground Floor, The Ambience Building, 16th Cross, 27th Main, Sector 1, HSR, Bangalore",12.91258,77.65141,"a18b94e1-f33c-42a6-9f3f-d022b0f1598b","DL 9CX 7218"
"SKU_64","47082143365","Peggy Hwang","2606, The Ambience, 27th Main Road, 16th cross, HSR Layout",12.91258,77.65141,"a18b94e1-f33c-42a6-9f3f-d022b0f1598b","DL 9CX 7218"
"SKU_8","52917061849","Katrina Hilderbrandt","27th Main road, Sriven Teesta, Near Raymond?s Showroom HSR, Bangalore",12.91212,77.64455,"a18b94e1-f33c-42a6-9f3f-d022b0f1598b","DL 9CX 7218"
"SKU_19","56766768595","Elaine Watson","49, Agara Circle, Near Hanuman Statue, HSR Layout, HSR, Bangalore",12.92364,77.64972,"a18b94e1-f33c-42a6-9f3f-d022b0f1598b","DL 9CX 7218"
"SKU_93","74962568491","Carol Pettway","Shop 5, LNR Building, Harlur Road, HSR, Bangalore",12.90698,77.66349,"a18b94e1-f33c-42a6-9f3f-d022b0f1598b","DL 9CX 7218"
"SKU_83","44759282449","Robert Olsen","36, Off MG Road, Church Street, Bangalore",12.97399,77.61244,"d8d16ed0-73b0-4be2-8e33-2fc24a4034bc","DL 8EA 7832"
"SKU_52","91477551055","Thomas Lindquist","2nd Stage, Indiranagar, Bangalore",12.96201,77.63438,"d8d16ed0-73b0-4be2-8e33-2fc24a4034bc","DL 8EA 7832"
"SKU_80","84612864961","Shelia West","12th Main, HAL 2nd Stage, ESI To Domlur, Service Road, Indiranagar, Bangalore",12.96142,77.63491,"d8d16ed0-73b0-4be2-8e33-2fc24a4034bc","DL 8EA 7832"
"SKU_72","85725180680","Stanley Davis","598, 1st floor, 1st Cross, 1st A Main Road, Domlur Layout, 1st Stage, Domlur, Bangalore",12.96009,77.63571,"d8d16ed0-73b0-4be2-8e33-2fc24a4034bc","DL 8EA 7832"
"SKU_18","96249705883","Rosa Alvarez","598, 1st Floor, 1st Cross, 1st A Main Road, Domlur Layout, 1st Stage, Domlur, Bangalore",12.96009,77.63571,"d8d16ed0-73b0-4be2-8e33-2fc24a4034bc","DL 8EA 7832"
"SKU_17","81721151401","Scott Peabody","765, 1st Floor, 1st Main, Domlur Layout, Domlur, Bangalore",12.95999,77.64075,"d8d16ed0-73b0-4be2-8e33-2fc24a4034bc","DL 8EA 7832"
"SKU_58","83288941747","Yvonne Haddad","72, 2nd Floor, Next to Max & Crossword, 3rd Phase, Inner Ring Road, JP Nagar, Bangalore",12.95065,77.63921,"d8d16ed0-73b0-4be2-8e33-2fc24a4034bc","DL 8EA 7832"
"SKU_110","53198547414","Kathleen Thompson","181, 3rd Floor, Amar Jyothi Layout, Inner Ring Road, Domlur, Bangalore",12.95395,77.64109,"d8d16ed0-73b0-4be2-8e33-2fc24a4034bc","DL 8EA 7832"
"SKU_17","86841663173","George Douglas","Domlur, Bangalore",12.96099,77.63873,"d8d16ed0-73b0-4be2-8e33-2fc24a4034bc","DL 8EA 7832"
"SKU_53","49695767650","Mary Compton","Shop 217, 2nd Main Road Kadubeesanahalli Croma Back Side Road Near Kumbeshwara Temple Marathahalli, Bangalore",12.9733,77.69579,"d8d16ed0-73b0-4be2-8e33-2fc24a4034bc","DL 8EA 7832"
"SKU_90","72580152196","Patrick Payne","Shop 217, 2nd main road, Kadubeesanahalli Croma, Back Side road Near Kumbeshwara Temple Marathahalli, Bangalore",12.9733,77.69579,"d8d16ed0-73b0-4be2-8e33-2fc24a4034bc","DL 8EA 7832"
"SKU_102","54016008457","James Allen","Ikon Building, Next to Sony Centre, Outer Ring Road, Marathahalli",13.0275,77.63458,"d8d16ed0-73b0-4be2-8e33-2fc24a4034bc","DL 8EA 7832"
"SKU_6","79226518761","John Dennis","39/7, 5th Cross, 6th Main, Appareddy Palya, Indiranagar, Bangalore",13.01163,77.6485,"d8d16ed0-73b0-4be2-8e33-2fc24a4034bc","DL 8EA 7832"
"SKU_97","61354798733","Matthew Bass","76, Shruthi Layout, Basavanapura Main Road, KR Puram, Bangalore",13.01035,77.70349,"d8d16ed0-73b0-4be2-8e33-2fc24a4034bc","DL 8EA 7832"
"SKU_12","60559333974","Romelia Phillips","7, Anurhh Arcade, Hoodi Road, Kodigehalli Road, KR Puram, Bangalore",13.00449,77.71259,"d8d16ed0-73b0-4be2-8e33-2fc24a4034bc","DL 8EA 7832"
"SKU_12","28529174781","Bryan Warthen","Devasandra Main Road, Ayyappa Nagar, KR Puram, Bangalore",13.00431,77.71031,"d8d16ed0-73b0-4be2-8e33-2fc24a4034bc","DL 8EA 7832"
"SKU_70","15145909184","Tiffany Coker","7, Anurhh Arcade, Hoodi Road, Kodigehalli Road, KR Puram, Bangalore",13.00449,77.71259,"d8d16ed0-73b0-4be2-8e33-2fc24a4034bc","DL 8EA 7832"
"SKU_69","62644046092","Sherry Cole","Coconut Garden Layout, Kodigehalli Main Road, KR Puram, Bangalore",13.00348,77.71755,"d8d16ed0-73b0-4be2-8e33-2fc24a4034bc","DL 8EA 7832"
"SKU_116","84014569034","Peggy Heisler","Shop 2, Kodigahalli Main Road, KR Puram",13.00773,77.73421,"d8d16ed0-73b0-4be2-8e33-2fc24a4034bc","DL 8EA 7832"
"SKU_73","89948676925","James Carlen","Shop 2, Kodigahalli Main Road, KR Puram",13.00773,77.73421,"d8d16ed0-73b0-4be2-8e33-2fc24a4034bc","DL 8EA 7832"
"SKU_36","47626343441","Virginia Hartzler","2/1 Unit 6, Hoodi Kodigehalli Road, Opposite Crystal Apartment, KR Puram, Bangalore",13.00179,77.72315,"d8d16ed0-73b0-4be2-8e33-2fc24a4034bc","DL 8EA 7832"
"SKU_150","84273793675","James Horne","2/1 Unit 6, Hoodi Kodigehalli Road, Opposite Crystal Apartment, KR Puram, Bangalore",13.00179,77.72315,"d8d16ed0-73b0-4be2-8e33-2fc24a4034bc","DL 8EA 7832"
"SKU_86","80856836359","Beverly Coleman","2/1 Unit 6, Hoodi Kodigehalli Road, Opposite Crystal Apartment, KR Puram, Bangalore",13.00179,77.72315,"d8d16ed0-73b0-4be2-8e33-2fc24a4034bc","DL 8EA 7832"
"SKU_142","44140764186","Abraham Rehkop","2/1 Unit 6, Hoodi Kodigehalli Road, Opposite Crystal Apartment, KR Puram, Bangalore",13.00179,77.72315,"d8d16ed0-73b0-4be2-8e33-2fc24a4034bc","DL 8EA 7832"
"SKU_67","62724763094","Jacob Mccroy","92, Ground Floor, Muninanjappa Gardens, Kodigehalli Main Road, KR Puram, Bangalore",13.00356,77.72455,"d8d16ed0-73b0-4be2-8e33-2fc24a4034bc","DL 8EA 7832"
"SKU_132","17432534499","Verna White","21/28, Radhakrishna Nilaya, Opp SEA Institutions, Ayappa Nagar, KR Puram, Bangalore",12.99982,77.71516,"d8d16ed0-73b0-4be2-8e33-2fc24a4034bc","DL 8EA 7832"
"SKU_43","63269771781","Deanna Castille","39, Aiyaapanagar Main Road, Near Krishna Community Hall, KR Puram, Bangalore",13.00315,77.71262,"d8d16ed0-73b0-4be2-8e33-2fc24a4034bc","DL 8EA 7832"
"SKU_143","81037487822","Carl Luskey","7, Anurhh Arcade, Hoodi Road, Kodigehalli Road, KR Puram, Bangalore",13.00449,77.71259,"d8d16ed0-73b0-4be2-8e33-2fc24a4034bc","DL 8EA 7832"
"SKU_91","60381594139","Marlon Leonard","7, Anurhh Arcade, Hoodi Road, Kodigehalli Road, KR Puram, Bangalore",13.00449,77.71259,"d8d16ed0-73b0-4be2-8e33-2fc24a4034bc","DL 8EA 7832"
"SKU_104","81129879069","Virginia Hernandez","92, Kodigehalli Main Road, Ayyappa Nagar, KR Puram, Bangalore",13.00461,77.71404,"d8d16ed0-73b0-4be2-8e33-2fc24a4034bc","DL 8EA 7832"
"SKU_136","34795550625","Diana Gerry","44, Kodigehalli to Hoodi Main Road, Mahadevapura Post, KR Puram, Bangalore",12.98602,77.70842,"d8d16ed0-73b0-4be2-8e33-2fc24a4034bc","DL 8EA 7832"
"SKU_70","62280811516","Gertrude Frazier","4, St Mary's Building, 2nd Stage, Indiranagar, Bangalore",12.96986,77.75156,"d8d16ed0-73b0-4be2-8e33-2fc24a4034bc","DL 8EA 7832"
"SKU_79","25842170396","Jon Villanueva","595, Ground Floor, Kundalahalli, Varthur Hobli Mahadevpura, Marathahalli, Bangalore",12.95581,77.71368,"d8d16ed0-73b0-4be2-8e33-2fc24a4034bc","DL 8EA 7832"
"SKU_61","31203804545","Katie Kochevar","Ground Floor, Vims Hospital Buidling, Opposite to More, Marathahalli, Bangalore",12.9483,77.69946,"d8d16ed0-73b0-4be2-8e33-2fc24a4034bc","DL 8EA 7832"
"SKU_89","49862610786","Naomi Daniels","20/5, Outer Ring Road, Kadubeesanahalli, Marathahalli, Bangalore",12.93873,77.69512,"d8d16ed0-73b0-4be2-8e33-2fc24a4034bc","DL 8EA 7832"